[
  {
    "OBJECT_NAME": "STARLINK-30991",
    "OBJECT_ID": "2023-186M",
    "EPOCH": "2025-05-03T21:04:45.981408",
    "MEAN_MOTION": 15.02534537,
    "ECCENTRICITY": 0.0001188,
    "INCLINATION": 43.0055,
    "RA_OF_ASC_NODE": 310.3715,
    "ARG_OF_PERICENTER": 269.3545,
    "MEAN_ANOMALY": 90.7161,
    "EPHEMERIS_TYPE": 0,
    "CLASSIFICATION_TYPE": "U",
    "NORAD_CAT_ID": 58484,
    "ELEMENT_SET_NO": 999,
    "REV_AT_EPOCH": 7924,
    "BSTAR": 7.6038e-05,
    "MEAN_MOTION_DOT": 8.24e-06,
    "MEAN_MOTION_DDOT": 0
  },
  {
    "OBJECT_NAME": "STARLINK-30979",
    "OBJECT_ID": "2023-186N",
    "EPOCH": "2025-05-03T20:31:22.255680",
    "MEAN_MOTION": 15.02533815,
    "ECCENTRICITY": 0.0001191,
    "INCLINATION": 43.0034,
    "RA_OF_ASC_NODE": 311.0636,
    "ARG_OF_PERICENTER": 268.2372,
    "MEAN_ANOMALY": 91.8334,
    "EPHEMERIS_TYPE": 0,
    "CLASSIFICATION_TYPE": "U",
    "NORAD_CAT_ID": 58485,
    "ELEMENT_SET_NO": 999,
    "REV_AT_EPOCH": 7923,
    "BSTAR": 2.9132e-05,
    "MEAN_MOTION_DOT": 1.9e-06,
    "MEAN_MOTION_DDOT": 0
  },
  {
    "OBJECT_NAME": "STARLINK-31005",
    "OBJECT_ID": "2023-186P",
    "EPOCH": "2025-05-03T22:02:18.929760",
    "MEAN_MOTION": 15.02519674,
    "ECCENTRICITY": 0.0001585,
    "INCLINATION": 43.0045,
    "RA_OF_ASC_NODE": 310.6784,
    "ARG_OF_PERICENTER": 262.2462,
    "MEAN_ANOMALY": 97.82,
    "EPHEMERIS_TYPE": 0,
    "CLASSIFICATION_TYPE": "U",
    "NORAD_CAT_ID": 58486,
    "ELEMENT_SET_NO": 999,
    "REV_AT_EPOCH": 7920,
    "BSTAR": 0.00012382,
    "MEAN_MOTION_DOT": 1.469e-05,
    "MEAN_MOTION_DDOT": 0
  },
  {
    "OBJECT_NAME": "STARLINK-30987",
    "OBJECT_ID": "2023-186Q",
    "EPOCH": "2025-05-03T18:46:03.141120",
    "MEAN_MOTION": 15.02538804,
    "ECCENTRICITY": 0.0001168,
    "INCLINATION": 43.005,
    "RA_OF_ASC_NODE": 311.377,
    "ARG_OF_PERICENTER": 269.9576,
    "MEAN_ANOMALY": 90.1133,
    "EPHEMERIS_TYPE": 0,
    "CLASSIFICATION_TYPE": "U",
    "NORAD_CAT_ID": 58487,
    "ELEMENT_SET_NO": 999,
    "REV_AT_EPOCH": 7922,
    "BSTAR": 3.6958e-05,
    "MEAN_MOTION_DOT": 2.96e-06,
    "MEAN_MOTION_DDOT": 0
  },
  {
    "OBJECT_NAME": "STARLINK-31000",
    "OBJECT_ID": "2023-186R",
    "EPOCH": "2025-05-03T18:41:16.833120",
    "MEAN_MOTION": 15.02521103,
    "ECCENTRICITY": 0.0003005,
    "INCLINATION": 43.0042,
    "RA_OF_ASC_NODE": 311.3474,
    "ARG_OF_PERICENTER": 252.2721,
    "MEAN_ANOMALY": 107.7793,
    "EPHEMERIS_TYPE": 0,
    "CLASSIFICATION_TYPE": "U",
    "NORAD_CAT_ID": 58488,
    "ELEMENT_SET_NO": 999,
    "REV_AT_EPOCH": 7922,
    "BSTAR": 0.00032838,
    "MEAN_MOTION_DOT": 4.233e-05,
    "MEAN_MOTION_DDOT": 0
  },
  {
    "OBJECT_NAME": "STARLINK-30993",
    "OBJECT_ID": "2023-186S",
    "EPOCH": "2025-05-03T13:49:16.613472",
    "MEAN_MOTION": 15.0253261,
    "ECCENTRICITY": 0.0001394,
    "INCLINATION": 43.003,
    "RA_OF_ASC_NODE": 312.4074,
    "ARG_OF_PERICENTER": 263.4774,
    "MEAN_ANOMALY": 96.5909,
    "EPHEMERIS_TYPE": 0,
    "CLASSIFICATION_TYPE": "U",
    "NORAD_CAT_ID": 58489,
    "ELEMENT_SET_NO": 999,
    "REV_AT_EPOCH": 7915,
    "BSTAR": -2.6219e-05,
    "MEAN_MOTION_DOT": -5.58e-06,
    "MEAN_MOTION_DDOT": 0
  },
  {
    "OBJECT_NAME": "STARLINK-30978",
    "OBJECT_ID": "2023-186T",
    "EPOCH": "2025-05-03T20:07:23.739744",
    "MEAN_MOTION": 15.02534507,
    "ECCENTRICITY": 0.0001387,
    "INCLINATION": 43.0036,
    "RA_OF_ASC_NODE": 310.9372,
    "ARG_OF_PERICENTER": 266.767,
    "MEAN_ANOMALY": 93.3013,
    "EPHEMERIS_TYPE": 0,
    "CLASSIFICATION_TYPE": "U",
    "NORAD_CAT_ID": 58490,
    "ELEMENT_SET_NO": 999,
    "REV_AT_EPOCH": 7923,
    "BSTAR": 4.2949e-05,
    "MEAN_MOTION_DOT": 3.77e-06,
    "MEAN_MOTION_DDOT": 0
  },
  {
    "OBJECT_NAME": "STARLINK-30953",
    "OBJECT_ID": "2023-186U",
    "EPOCH": "2025-05-03T17:09:47.637216",
    "MEAN_MOTION": 15.27596893,
    "ECCENTRICITY": 0.0001442,
    "INCLINATION": 43.0022,
    "RA_OF_ASC_NODE": 218.0718,
    "ARG_OF_PERICENTER": 276.0334,
    "MEAN_ANOMALY": 84.0353,
    "EPHEMERIS_TYPE": 0,
    "CLASSIFICATION_TYPE": "U",
    "NORAD_CAT_ID": 58491,
    "ELEMENT_SET_NO": 999,
    "REV_AT_EPOCH": 8048,
    "BSTAR": 0.00018511,
    "MEAN_MOTION_DOT": 4.838e-05,
    "MEAN_MOTION_DDOT": 0
  },
  {
    "OBJECT_NAME": "STARLINK-30986",
    "OBJECT_ID": "2023-186V",
    "EPOCH": "2025-05-03T19:53:00.945024",
    "MEAN_MOTION": 15.02560172,
    "ECCENTRICITY": 0.0001476,
    "INCLINATION": 43.0037,
    "RA_OF_ASC_NODE": 310.8617,
    "ARG_OF_PERICENTER": 263.2165,
    "MEAN_ANOMALY": 96.8509,
    "EPHEMERIS_TYPE": 0,
    "CLASSIFICATION_TYPE": "U",
    "NORAD_CAT_ID": 58492,
    "ELEMENT_SET_NO": 999,
    "REV_AT_EPOCH": 7923,
    "BSTAR": -0.00048938,
    "MEAN_MOTION_DOT": -6.812e-05,
    "MEAN_MOTION_DDOT": 0
  },
  {
    "OBJECT_NAME": "STARLINK-30985",
    "OBJECT_ID": "2023-186W",
    "EPOCH": "2025-05-03T19:48:13.162176",
    "MEAN_MOTION": 15.02533351,
    "ECCENTRICITY": 0.0001282,
    "INCLINATION": 43.0071,
    "RA_OF_ASC_NODE": 310.8373,
    "ARG_OF_PERICENTER": 274.831,
    "MEAN_ANOMALY": 85.2386,
    "EPHEMERIS_TYPE": 0,
    "CLASSIFICATION_TYPE": "U",
    "NORAD_CAT_ID": 58493,
    "ELEMENT_SET_NO": 999,
    "REV_AT_EPOCH": 7923,
    "BSTAR": 7.6866e-05,
    "MEAN_MOTION_DOT": 8.35e-06,
    "MEAN_MOTION_DDOT": 0
  },
  {
    "OBJECT_NAME": "STARLINK-30981",
    "OBJECT_ID": "2023-186X",
    "EPOCH": "2025-05-03T22:54:52.903008",
    "MEAN_MOTION": 15.02544796,
    "ECCENTRICITY": 0.0001161,
    "INCLINATION": 43.0043,
    "RA_OF_ASC_NODE": 310.0886,
    "ARG_OF_PERICENTER": 265.5278,
    "MEAN_ANOMALY": 94.5431,
    "EPHEMERIS_TYPE": 0,
    "CLASSIFICATION_TYPE": "U",
    "NORAD_CAT_ID": 58494,
    "ELEMENT_SET_NO": 999,
    "REV_AT_EPOCH": 7921,
    "BSTAR": -4.8574e-05,
    "MEAN_MOTION_DOT": -8.6e-06,
    "MEAN_MOTION_DDOT": 0
  },
  {
    "OBJECT_NAME": "STARLINK-31002",
    "OBJECT_ID": "2023-186Y",
    "EPOCH": "2025-05-03T21:14:20.891328",
    "MEAN_MOTION": 15.02535103,
    "ECCENTRICITY": 0.0001773,
    "INCLINATION": 43.0039,
    "RA_OF_ASC_NODE": 310.4253,
    "ARG_OF_PERICENTER": 286.6324,
    "MEAN_ANOMALY": 73.4323,
    "EPHEMERIS_TYPE": 0,
    "CLASSIFICATION_TYPE": "U",
    "NORAD_CAT_ID": 58495,
    "ELEMENT_SET_NO": 999,
    "REV_AT_EPOCH": 7941,
    "BSTAR": -0.00082982,
    "MEAN_MOTION_DOT": -0.00011395,
    "MEAN_MOTION_DDOT": 0
  },
  {
    "OBJECT_NAME": "STARLINK-31026",
    "OBJECT_ID": "2023-191A",
    "EPOCH": "2025-05-03T22:27:00.647424",
    "MEAN_MOTION": 15.02539893,
    "ECCENTRICITY": 0.0001718,
    "INCLINATION": 43.0043,
    "RA_OF_ASC_NODE": 350.1795,
    "ARG_OF_PERICENTER": 273.5351,
    "MEAN_ANOMALY": 86.5295,
    "EPHEMERIS_TYPE": 0,
    "CLASSIFICATION_TYPE": "U",
    "NORAD_CAT_ID": 58508,
    "ELEMENT_SET_NO": 999,
    "REV_AT_EPOCH": 7883,
    "BSTAR": 0.00025991,
    "MEAN_MOTION_DOT": 3.309e-05,
    "MEAN_MOTION_DDOT": 0
  },
  {
    "OBJECT_NAME": "STARLINK-31020",
    "OBJECT_ID": "2023-191B",
    "EPOCH": "2025-05-03T22:22:20.110080",
    "MEAN_MOTION": 15.02562677,
    "ECCENTRICITY": 0.00019,
    "INCLINATION": 43.005,
    "RA_OF_ASC_NODE": 351.0083,
    "ARG_OF_PERICENTER": 265.8707,
    "MEAN_ANOMALY": 94.1918,
    "EPHEMERIS_TYPE": 0,
    "CLASSIFICATION_TYPE": "U",
    "NORAD_CAT_ID": 58509,
    "ELEMENT_SET_NO": 999,
    "REV_AT_EPOCH": 7873,
    "BSTAR": 0.00030888,
    "MEAN_MOTION_DOT": 3.974e-05,
    "MEAN_MOTION_DDOT": 0
  },
  {
    "OBJECT_NAME": "STARLINK-30989",
    "OBJECT_ID": "2023-191C",
    "EPOCH": "2025-05-03T16:21:20.828448",
    "MEAN_MOTION": 15.02542905,
    "ECCENTRICITY": 0.0001585,
    "INCLINATION": 43.0053,
    "RA_OF_ASC_NODE": 350.8556,
    "ARG_OF_PERICENTER": 285.6108,
    "MEAN_ANOMALY": 74.4559,
    "EPHEMERIS_TYPE": 0,
    "CLASSIFICATION_TYPE": "U",
    "NORAD_CAT_ID": 58510,
    "ELEMENT_SET_NO": 999,
    "REV_AT_EPOCH": 7883,
    "BSTAR": 0.00011239,
    "MEAN_MOTION_DOT": 1.315e-05,
    "MEAN_MOTION_DDOT": 0
  },
  {
    "OBJECT_NAME": "STARLINK-30968",
    "OBJECT_ID": "2023-191D",
    "EPOCH": "2025-05-03T16:16:32.712096",
    "MEAN_MOTION": 15.02533093,
    "ECCENTRICITY": 9.43e-05,
    "INCLINATION": 43.0011,
    "RA_OF_ASC_NODE": 350.8325,
    "ARG_OF_PERICENTER": 265.977,
    "MEAN_ANOMALY": 94.0965,
    "EPHEMERIS_TYPE": 0,
    "CLASSIFICATION_TYPE": "U",
    "NORAD_CAT_ID": 58511,
    "ELEMENT_SET_NO": 999,
    "REV_AT_EPOCH": 7880,
    "BSTAR": 5.1826e-07,
    "MEAN_MOTION_DOT": -1.96e-06,
    "MEAN_MOTION_DDOT": 0
  },
  {
    "OBJECT_NAME": "STARLINK-30982",
    "OBJECT_ID": "2023-191E",
    "EPOCH": "2025-05-03T08:13:06.313152",
    "MEAN_MOTION": 15.02535015,
    "ECCENTRICITY": 0.000105,
    "INCLINATION": 43.0044,
    "RA_OF_ASC_NODE": 352.6141,
    "ARG_OF_PERICENTER": 269.3109,
    "MEAN_ANOMALY": 90.7613,
    "EPHEMERIS_TYPE": 0,
    "CLASSIFICATION_TYPE": "U",
    "NORAD_CAT_ID": 58512,
    "ELEMENT_SET_NO": 999,
    "REV_AT_EPOCH": 7875,
    "BSTAR": -1.3569e-05,
    "MEAN_MOTION_DOT": -3.87e-06,
    "MEAN_MOTION_DDOT": 0
  },
  {
    "OBJECT_NAME": "STARLINK-30998",
    "OBJECT_ID": "2023-191F",
    "EPOCH": "2025-05-04T00:05:35.507616",
    "MEAN_MOTION": 15.02538587,
    "ECCENTRICITY": 0.0001507,
    "INCLINATION": 43.0037,
    "RA_OF_ASC_NODE": 348.9805,
    "ARG_OF_PERICENTER": 274.7143,
    "MEAN_ANOMALY": 85.3528,
    "EPHEMERIS_TYPE": 0,
    "CLASSIFICATION_TYPE": "U",
    "NORAD_CAT_ID": 58513,
    "ELEMENT_SET_NO": 999,
    "REV_AT_EPOCH": 7888,
    "BSTAR": 3.5424e-05,
    "MEAN_MOTION_DOT": 2.75e-06,
    "MEAN_MOTION_DDOT": 0
  }
]